JY1SAT (JO-97)          
1 43803U 18099AX  26068.68634132  .00017774  00000+0  60804-3 0  9996
2 43803  97.4249 131.3625 0004723 256.6795 103.3919 15.30302628398390
STARLINK-30605          
1 58101U 23161E   26068.56190566 -.00001224  00000+0 -29228-4 0  9995
2 58101  53.1609 166.0140 0001186  98.2694 261.8441 15.30184179134400
